GLOBALSTAR M057         
1 25943U 99058A   25202.38873539 -.00000033  00000+0  54838-3 0  9998
2 25943  51.9967 251.1431 0002809  92.1684 267.9487 12.24826950171122
GLOBALSTAR M059         
1 25944U 99058B   25202.91343627 -.00000101  00000+0 -18304-3 0  9993
2 25944  52.0018 113.2274 0001139  26.1821  53.2702 11.99979962578210
GLOBALSTAR M056         
1 25945U 99058C   25202.94070953 -.00000144  00000+0 -65645-3 0  9993
2 25945  51.9962 114.2211 0000527 284.6122 155.8724 12.04780639166814
GLOBALSTAR M031         
1 25946U 99058D   25202.87121712  .00000052  00000+0  14500-2 0  9995
2 25946  51.9985   4.6647 0000664 218.2908 289.7394 12.16039273168762
GLOBALSTAR M039         
1 25961U 99062A   25202.60829389 -.00000114  00000+0 -57983-4 0  9998
2 25961  51.9830 163.8758 0002919  59.8411 300.2745 12.62329940184561
GLOBALSTAR M034         
1 25962U 99062B   25202.53553028 -.00000027  00000+0  86200-3 0  9990
2 25962  51.9875 282.1043 0014495 107.5356 354.4840 11.79446588142425
GLOBALSTAR M029         
1 25963U 99062C   25202.76408015 -.00000070  00000+0  20085-3 0  9998
2 25963  51.9828   1.6378 0002663 168.2289 295.9626 11.99898509173276
GLOBALSTAR M061         
1 25964U 99062D   25202.95348947 -.00000083  00000+0 -51394-4 0  9990
2 25964  51.9793 105.5118 0006650  30.7737  52.9954 11.76776229125276
